STARLINK-32141          
1 60290U 24132N   26174.58226929  .00001781  00000+0  72223-4 0  9998
2 60290  53.1596 280.5263 0001023  78.9997 281.1119 15.30206751107774
STARLINK-32142          
1 60291U 24132P   26175.01837398 -.00001168  00000+0 -27337-4 0  9993
2 60291  53.1602 278.2705 0001076  81.6756 278.4367 15.30192799107848
STARLINK-32149          
1 60292U 24132Q   26174.57094187  .00001795  00000+0  69581-4 0  9996
2 60292  53.1617 280.4626 0001099  81.8687 278.2439 15.31707730107770
STARLINK-32159          
1 60293U 24132R   26174.55905791 -.00000447  00000+0 -29749-5 0  9995
2 60293  53.1605 280.3803 0000816  48.2903 311.8167 15.30193093107770
STARLINK-32150          
1 60294U 24132S   26174.77134626  .00001533  00000+0  61116-4 0  9999
2 60294  53.1602 279.5780 0001042  79.8825 280.2294 15.31724485107807
STARLINK-32126          
1 60295U 24132T   26175.01837574  .00000048  00000+0  13318-4 0  9991
2 60295  53.1591 278.2717 0001775  84.6566 275.4638 15.31698319107848
STARLINK-32143          
1 60296U 24132U   26174.55227956  .00001379  00000+0  56200-4 0  9992
2 60296  53.1602 280.3419 0001148  99.5472 260.5659 15.31689375107772
STARLINK-32034          
1 60297U 24132V   26174.66843077  .00001033  00000+0  45035-4 0  9994
2 60297  53.1611 279.6448 0001062  95.6542 264.4581 15.31708301107796
STARLINK-32124          
1 60298U 24132W   26175.00436010 -.00000672  00000+0 -98969-5 0  9994
2 60298  53.1580 278.1867 0000802  80.4287 279.6805 15.31701745107848
STARLINK-32151          
1 60299U 24132X   26174.93554482 -.00000822  00000+0 -15626-4 0  9995
2 60299  53.1607 250.4839 0001058  90.2277 269.8845 15.30194860108224
STARLINK-32134          
1 60300U 24132Y   26174.71501194  .00000787  00000+0  38687-4 0  9996
2 60300  53.1590 279.9324 0001015  81.5614 278.5502 15.30200064107796
STARLINK-11147 [DTC]    
1 60301U 24133A   26176.17936249  .00004786  00000+0  44260-4 0  9990
2 60301  53.1612 336.5555 0000938  95.0915 265.0210 15.69751267110615
STARLINK-11128 [DTC]    
1 60302U 24133B   26174.20074834 -.00004069  00000+0 -28723-4 0  9998
2 60302  53.1582 346.2538 0000864  66.0990 294.0119 15.69728606110307
STARLINK-11227 [DTC]    
1 60303U 24133C   26176.16959398  .00006430  00000+0  57968-4 0  9998
2 60303  53.1578 336.4900 0000975 105.4993 254.6133 15.69677271110692
STARLINK-11224 [DTC]    
1 60304U 24133D   26176.16469257 -.00000945  00000+0 -29377-5 0  9990
2 60304  53.1591 336.4569 0001237  90.4576 269.6583 15.69705308110699
STARLINK-11115 [DTC]    
1 60305U 24133E   26174.88639909  .00000580  00000+0  96448-5 0  9997
2 60305  53.1596 342.6990 0001068  85.0684 275.0455 15.69707250110411
STARLINK-11109 [DTC]    
1 60306U 24133F   26176.15487659 -.00000194  00000+0  32535-5 0  9992
2 60306  53.1589 336.3893 0000824  86.3979 273.7133 15.69710637110619
STARLINK-11223 [DTC]    
1 60307U 24133G   26175.19003019  .00000068  00000+0  54185-5 0  9994
2 60307  53.1595 341.0309 0001226  94.2145 265.9014 15.69706026110463
STARLINK-11192 [DTC]    
1 60308U 24133H   26175.19491789  .00002288  00000+0  23723-4 0  9999
2 60308  53.1599 341.0667 0001161  77.6294 282.4854 15.69723189110468
STARLINK-11213 [DTC]    
1 60309U 24133J   26175.18512517  .00001539  00000+0  17564-4 0  9996
2 60309  53.1593 340.9970 0000705 105.9294 254.1802 15.69699457110465
STARLINK-11200 [DTC]    
1 60310U 24133K   26175.88057775 -.00000161  00000+0  35260-5 0  9990
2 60310  53.1592 337.5145 0000950  88.6176 271.4950 15.69710252110575
STARLINK-11206 [DTC]    
1 60312U 24133M   26175.87089685 -.00004544  00000+0 -32697-4 0  9996
2 60312  53.1587 338.1810 0001855  76.0391 284.0833 15.69679149110560
STARLINK-11205 [DTC]    
1 60313U 24133N   26175.16559334  .00001614  00000+0  18164-4 0  9998
2 60313  53.1589 341.6002 0000871 100.0520 260.0596 15.69720307110455
STARLINK-32191          
1 60314U 24133P   26176.20588963 -.00001185  00000+0 -27881-4 0  9996
2 60314  53.1596 157.5060 0001425  95.9862 264.1301 15.30185618108105
STARLINK-32194          
1 60315U 24133Q   26176.16667823 -.00009831  00000+0 -28034-3 0  9991
2 60315  53.1607 157.7468 0001521  72.2166  45.8550 15.34383302  5857
STARLINK-32192          
1 60316U 24133R   26176.18373104  .00002025  00000+0  80462-4 0  9990
2 60316  53.1591 157.3732 0001395  94.3714 265.7446 15.30208359108195
STARLINK-32189          
1 60317U 24133S   26175.23872987  .00015082  00000+0  51852-3 0  9996
2 60317  53.1594 162.1391 0001061  41.6911 318.4171 15.30311334108041
STARLINK-32190          
1 60318U 24133T   26176.20905506  .00001111  00000+0  49613-4 0  9990
2 60318  53.1596 157.5274 0001345  90.6945 269.4210 15.30207737108105
STARLINK-32182          
1 60319U 24133U   26176.21663451  .01168261  00000+0  33675-1 0  9991
2 60319  53.1583 157.5792 0010466 216.2011 143.8283 15.32641952108109
STARLINK-32199          
1 60320U 24133V   26176.21222260  .00000813  00000+0  39595-4 0  9999
2 60320  53.1591 157.5469 0002179  98.8032 261.3215 15.30195432108106
