OBJECT_NAME,OBJECT_ID,EPOCH,MEAN_MOTION,ECCENTRICITY,INCLINATION,RA_OF_ASC_NODE,ARG_OF_PERICENTER,MEAN_ANOMALY,EPHEMERIS_TYPE,CLASSIFICATION_TYPE,NORAD_CAT_ID,ELEMENT_SET_NO,REV_AT_EPOCH,BSTAR,MEAN_MOTION_DOT,MEAN_MOTION_DDOT
STARLINK-32141,2024-132N,2026-06-23T13:58:28.066656,15.30206751,.00010235,53.1596,280.5263,78.9997,281.1119,0,U,60290,999,10777,.72223052E-4,.1781E-4,0
STARLINK-32142,2024-132P,2026-06-24T00:26:27.511872,15.30192799,.00010764,53.1602,278.2705,81.6756,278.4367,0,U,60291,999,10784,-.27337408E-4,-.1168E-4,0
STARLINK-32149,2024-132Q,2026-06-23T13:42:09.377568,15.31707730,.00010993,53.1617,280.4626,81.8687,278.2439,0,U,60292,999,10777,.69580678E-4,.1795E-4,0
STARLINK-32159,2024-132R,2026-06-23T13:25:02.603424,15.30193093,.00008168,53.1605,280.3803,48.2903,311.8167,0,U,60293,999,10777,-.2974914E-5,-.447E-5,0
STARLINK-32150,2024-132S,2026-06-23T18:30:44.316864,15.31724485,.00010423,53.1602,279.5780,79.8825,280.2294,0,U,60294,999,10780,.61115604E-4,.1533E-4,0
STARLINK-32126,2024-132T,2026-06-24T00:26:27.663936,15.31698319,.00017752,53.1591,278.2717,84.6566,275.4638,0,U,60295,999,10784,.13318142E-4,.48E-6,0
STARLINK-32143,2024-132U,2026-06-23T13:15:16.953984,15.31689375,.00011482,53.1602,280.3419,99.5472,260.5659,0,U,60296,999,10777,.56200022E-4,.1379E-4,0
STARLINK-32034,2024-132V,2026-06-23T16:02:32.418528,15.31708301,.00010625,53.1611,279.6448,95.6542,264.4581,0,U,60297,999,10779,.45035326E-4,.1033E-4,0
STARLINK-32124,2024-132W,2026-06-24T00:06:16.712640,15.31701745,.00008029,53.1580,278.1867,80.4287,279.6805,0,U,60298,999,10784,-.98969E-5,-.672E-5,0
STARLINK-32151,2024-132X,2026-06-23T22:27:11.072448,15.30194860,.00010588,53.1607,250.4839,90.2277,269.8845,0,U,60299,999,10822,-.15626208E-4,-.822E-5,0
STARLINK-32134,2024-132Y,2026-06-23T17:09:37.031616,15.30200064,.0001015,53.1590,279.9324,81.5614,278.5502,0,U,60300,999,10779,.38687103E-4,.787E-5,0
STARLINK-11147 [DTC],2024-133A,2026-06-25T04:18:16.919136,15.69751267,.0000938,53.1612,336.5555,95.0915,265.0210,0,U,60301,999,11061,.4426E-4,.4786E-4,0
STARLINK-11128 [DTC],2024-133B,2026-06-23T04:49:04.656576,15.69728606,.00008646,53.1582,346.2538,66.0990,294.0119,0,U,60302,999,11030,-.28723424E-4,-.4069E-4,0
STARLINK-11227 [DTC],2024-133C,2026-06-25T04:04:12.919872,15.69677271,.0000975,53.1578,336.4900,105.4993,254.6133,0,U,60303,999,11069,.57968E-4,.643E-4,0
STARLINK-11224 [DTC],2024-133D,2026-06-25T03:57:09.438048,15.69705308,.0001237,53.1591,336.4569,90.4576,269.6583,0,U,60304,999,11069,-.29377E-5,-.945E-5,0
STARLINK-11115 [DTC],2024-133E,2026-06-23T21:16:24.881376,15.69707250,.00010681,53.1596,342.6990,85.0684,275.0455,0,U,60305,999,11041,.9644752E-5,.58E-5,0
STARLINK-11109 [DTC],2024-133F,2026-06-25T03:43:01.337376,15.69710637,.0000824,53.1589,336.3893,86.3979,273.7133,0,U,60306,999,11061,.32535E-5,-.194E-5,0
STARLINK-11223 [DTC],2024-133G,2026-06-24T04:33:38.608416,15.69706026,.00012267,53.1595,341.0309,94.2145,265.9014,0,U,60307,999,11046,.541846E-5,.68E-6,0
STARLINK-11192 [DTC],2024-133H,2026-06-24T04:40:40.905696,15.69723189,.00011611,53.1599,341.0667,77.6294,282.4854,0,U,60308,999,11046,.23722654E-4,.2288E-4,0
STARLINK-11213 [DTC],2024-133J,2026-06-24T04:26:34.814688,15.69699457,.00007056,53.1593,340.9970,105.9294,254.1802,0,U,60309,999,11046,.17564395E-4,.1539E-4,0
STARLINK-11200 [DTC],2024-133K,2026-06-24T21:08:01.917600,15.69710252,.000095,53.1592,337.5145,88.6176,271.4950,0,U,60310,999,11057,.3526E-5,-.161E-5,0
STARLINK-11206 [DTC],2024-133M,2026-06-24T20:54:05.487840,15.69679149,.0001855,53.1587,338.1810,76.0391,284.0833,0,U,60312,999,11056,-.32697E-4,-.4544E-4,0
STARLINK-11205 [DTC],2024-133N,2026-06-24T03:58:27.264576,15.69720307,.00008715,53.1589,341.6002,100.0520,260.0596,0,U,60313,999,11045,.18163849E-4,.1614E-4,0
STARLINK-32191,2024-133P,2026-06-25T04:56:28.864032,15.30185618,.0001425,53.1596,157.5060,95.9862,264.1301,0,U,60314,999,10810,-.27881E-4,-.1185E-4,0
STARLINK-32194,2024-133Q,2026-06-25T04:00:00.999072,15.34383302,.0001521,53.1607,157.7468,72.2166,45.8550,0,U,60315,999,585,-.28034E-3,-.9831E-4,0
STARLINK-32192,2024-133R,2026-06-25T04:24:34.361856,15.30208359,.0001395,53.1591,157.3732,94.3714,265.7446,0,U,60316,999,10819,.80462E-4,.2025E-4,0
STARLINK-32189,2024-133S,2026-06-24T05:43:46.260768,15.30311334,.00010619,53.1594,162.1391,41.6911,318.4171,0,U,60317,999,10804,.51852028E-3,.15082E-3,0
STARLINK-32190,2024-133T,2026-06-25T05:01:02.357184,15.30207737,.0001345,53.1596,157.5274,90.6945,269.4210,0,U,60318,999,10810,.49613E-4,.1111E-4,0
STARLINK-32182,2024-133U,2026-06-25T05:11:57.221664,15.32641952,.0010466,53.1583,157.5792,216.2011,143.8283,0,U,60319,999,10810,.33675E-1,.1168261E-1,0
STARLINK-32199,2024-133V,2026-06-25T05:05:36.032640,15.30195432,.0002179,53.1591,157.5469,98.8032,261.3215,0,U,60320,999,10810,.39595E-4,.813E-5,0
